{
  "type": "FeatureCollection",
  "features": [
    {
      "type": "Feature",
      "properties": {
        "norad_id": 66657,
        "name": "SPIRONE",
        "group": "last-30-days",
        "lat": -28.930721835241922,
        "lon": 79.7294853061653,
        "alt_km": 598.6403695345962,
        "timestamp": "2025-12-02T15:49:05.950455+00:00",
        "meta_object_name": "SPIRONE",
        "meta_object_id": "2025-274H",
        "meta_epoch": "2025-12-01T17:57:48.824928",
        "meta_mean_motion": 14.92340933,
        "meta_eccentricity": 0.00112498,
        "meta_inclination": 97.7371,
        "meta_ra_of_asc_node": 263.1447,
        "meta_arg_of_pericenter": 317.7398,
        "meta_mean_anomaly": 42.2953,
        "meta_ephemeris_type": 0,
        "meta_classification_type": "U",
        "meta_norad_cat_id": 66657,
        "meta_element_set_no": 999,
        "meta_rev_at_epoch": 76,
        "meta_bstar": 0.00040930756,
        "meta_mean_motion_dot": 4.134e-05,
        "meta_mean_motion_ddot": 0,
        "tle_line1": "1 66657U 25274H   25335.74848177  .00004134  00000+0  40931-3 0  9995",
        "tle_line2": "2 66657  97.7371 263.1447 0011249 317.7398  42.2953 14.92340933   764"
      },
      "geometry": {
        "type": "Point",
        "coordinates": [
          79.7294853061653,
          -28.930721835241922
        ]
      }
    },
    {
      "type": "Feature",
      "properties": {
        "norad_id": 66658,
        "name": "2025-274J",
        "group": "last-30-days",
        "lat": -32.66210477387534,
        "lon": 79.04055391877675,
        "alt_km": 598.2451655700852,
        "timestamp": "2025-12-02T15:49:05.950465+00:00",
        "meta_object_name": "2025-274J",
        "meta_object_id": "2025-274J",
        "meta_epoch": "2025-12-02T05:12:44.276832",
        "meta_mean_motion": 14.92521398,
        "meta_eccentricity": 0.00118243,
        "meta_inclination": 97.7375,
        "meta_ra_of_asc_node": 263.6066,
        "meta_arg_of_pericenter": 318.6018,
        "meta_mean_anomaly": 41.4305,
        "meta_ephemeris_type": 0,
        "meta_classification_type": "U",
        "meta_norad_cat_id": 66658,
        "meta_element_set_no": 999,
        "meta_rev_at_epoch": 83,
        "meta_bstar": 0.00044726374,
        "meta_mean_motion_dot": 4.544e-05,
        "meta_mean_motion_ddot": 0,
        "tle_line1": "1 66658U 25274J   25336.21717913  .00004544  00000+0  44726-3 0  9993",
        "tle_line2": "2 66658  97.7375 263.6066 0011824 318.6018  41.4305 14.92521398   835"
      },
      "geometry": {
        "type": "Point",
        "coordinates": [
          79.04055391877675,
          -32.66210477387534
        ]
      }
    },
    {
      "type": "Feature",
      "properties": {
        "norad_id": 66659,
        "name": "JACK K",
        "group": "last-30-days",
        "lat": -36.58187254678874,
        "lon": 78.25127404772768,
        "alt_km": 597.5718631827767,
        "timestamp": "2025-12-02T15:49:05.950475+00:00",
        "meta_object_name": "JACK K",
        "meta_object_id": "2025-274K",
        "meta_epoch": "2025-12-01T17:56:02.625504",
        "meta_mean_motion": 14.9270196,
        "meta_eccentricity": 0.00126261,
        "meta_inclination": 97.7374,
        "meta_ra_of_asc_node": 263.1465,
        "meta_arg_of_pericenter": 321.0842,
        "meta_mean_anomaly": 38.9468,
        "meta_ephemeris_type": 0,
        "meta_classification_type": "U",
        "meta_norad_cat_id": 66659,
        "meta_element_set_no": 999,
        "meta_rev_at_epoch": 76,
        "meta_bstar": 0.00036747917,
        "meta_mean_motion_dot": 3.74e-05,
        "meta_mean_motion_ddot": 0,
        "tle_line1": "1 66659U 25274K   25335.74725261  .00003740  00000+0  36748-3 0  9998",
        "tle_line2": "2 66659  97.7374 263.1465 0012626 321.0842  38.9468 14.92701960   765"
      },
      "geometry": {
        "type": "Point",
        "coordinates": [
          78.25127404772768,
          -36.58187254678874
        ]
      }
    },
    {
      "type": "Feature",
      "properties": {
        "norad_id": 66660,
        "name": "K-HERO",
        "group": "last-30-days",
        "lat": -39.73537118375621,
        "lon": 77.55470352167447,
        "alt_km": 596.9171387725628,
        "timestamp": "2025-12-02T15:49:05.950485+00:00",
        "meta_object_name": "K-HERO",
        "meta_object_id": "2025-274L",
        "meta_epoch": "2025-12-01T17:55:18.874272",
        "meta_mean_motion": 14.9285317,
        "meta_eccentricity": 0.00132505,
        "meta_inclination": 97.7378,
        "meta_ra_of_asc_node": 263.1475,
        "meta_arg_of_pericenter": 321.6444,
        "meta_mean_anomaly": 38.3832,
        "meta_ephemeris_type": 0,
        "meta_classification_type": "U",
        "meta_norad_cat_id": 66660,
        "meta_element_set_no": 999,
        "meta_rev_at_epoch": 76,
        "meta_bstar": 0.00040358481,
        "meta_mean_motion_dot": 4.13e-05,
        "meta_mean_motion_ddot": 0,
        "tle_line1": "1 66660U 25274L   25335.74674623  .00004130  00000+0  40358-3 0  9991",
        "tle_line2": "2 66660  97.7378 263.1475 0013250 321.6444  38.3832 14.92853170   760"
      },
      "geometry": {
        "type": "Point",
        "coordinates": [
          77.55470352167447,
          -39.73537118375621
        ]
      }
    },
    {
      "type": "Feature",
      "properties": {
        "norad_id": 66661,
        "name": "SNUGLITE-III",
        "group": "last-30-days",
        "lat": -43.004027959832314,
        "lon": 76.76040034449038,
        "alt_km": 596.215522402169,
        "timestamp": "2025-12-02T15:49:05.950502+00:00",
        "meta_object_name": "SNUGLITE-III",
        "meta_object_id": "2025-274M",
        "meta_epoch": "2025-12-01T17:54:33.114240",
        "meta_mean_motion": 14.93004804,
        "meta_eccentricity": 0.00139389,
        "meta_inclination": 97.7376,
        "meta_ra_of_asc_node": 263.1479,
        "meta_arg_of_pericenter": 322.3156,
        "meta_mean_anomaly": 37.7086,
        "meta_ephemeris_type": 0,
        "meta_classification_type": "U",
        "meta_norad_cat_id": 66661,
        "meta_element_set_no": 999,
        "meta_rev_at_epoch": 76,
        "meta_bstar": 0.00031192666,
        "meta_mean_motion_dot": 3.192e-05,
        "meta_mean_motion_ddot": 0,
        "tle_line1": "1 66661U 25274M   25335.74621660  .00003192  00000+0  31193-3 0  9999",
        "tle_line2": "2 66661  97.7376 263.1479 0013938 322.3156  37.7086 14.93004804   761"
      },
      "geometry": {
        "type": "Point",
        "coordinates": [
          76.76040034449038,
          -43.004027959832314
        ]
      }
    },
    {
      "type": "Feature",
      "properties": {
        "norad_id": 66662,
        "name": "2025-274N",
        "group": "last-30-days",
        "lat": -44.455644436661096,
        "lon": 76.37946765682858,
        "alt_km": 595.7236375869206,
        "timestamp": "2025-12-02T15:49:05.950512+00:00",
        "meta_object_name": "2025-274N",
        "meta_object_id": "2025-274N",
        "meta_epoch": "2025-12-02T05:09:44.751456",
        "meta_mean_motion": 14.93073383,
        "meta_eccentricity": 0.00142805,
        "meta_inclination": 97.7379,
        "meta_ra_of_asc_node": 263.6096,
        "meta_arg_of_pericenter": 320.098,
        "meta_mean_anomaly": 39.9189,
        "meta_ephemeris_type": 0,
        "meta_classification_type": "U",
        "meta_norad_cat_id": 66662,
        "meta_element_set_no": 999,
        "meta_rev_at_epoch": 83,
        "meta_bstar": 0.00027446603,
        "meta_mean_motion_dot": 2.807e-05,
        "meta_mean_motion_ddot": 0,
        "tle_line1": "1 66662U 25274N   25336.21510129  .00002807  00000+0  27447-3 0  9999",
        "tle_line2": "2 66662  97.7379 263.6096 0014280 320.0980  39.9189 14.93073383   830"
      },
      "geometry": {
        "type": "Point",
        "coordinates": [
          76.37946765682858,
          -44.455644436661096
        ]
      }
    },
    {
      "type": "Feature",
      "properties": {
        "norad_id": 66663,
        "name": "KSLV-II R/B",
        "group": "last-30-days",
        "lat": -41.750930731151705,
        "lon": -88.92799035182034,
        "alt_km": 556.6823400731155,
        "timestamp": "2025-12-02T15:49:05.950522+00:00",
        "meta_object_name": "KSLV-II R/B",
        "meta_object_id": "2025-274P",
        "meta_epoch": "2025-12-01T19:09:11.937312",
        "meta_mean_motion": 14.97208303,
        "meta_eccentricity": 0.00442329,
        "meta_inclination": 97.7405,
        "meta_ra_of_asc_node": 263.2462,
        "meta_arg_of_pericenter": 354.9322,
        "meta_mean_anomaly": 5.1446,
        "meta_ephemeris_type": 0,
        "meta_classification_type": "U",
        "meta_norad_cat_id": 66663,
        "meta_element_set_no": 999,
        "meta_rev_at_epoch": 77,
        "meta_bstar": -0.00030154003,
        "meta_mean_motion_dot": -3.618e-05,
        "meta_mean_motion_ddot": 0,
        "tle_line1": "1 66663U 25274P   25335.79805483 -.00003618  00000+0 -30154-3 0  9994",
        "tle_line2": "2 66663  97.7405 263.2462 0044232 354.9322   5.1446 14.97208303   770"
      },
      "geometry": {
        "type": "Point",
        "coordinates": [
          -88.92799035182034,
          -41.750930731151705
        ]
      }
    }
  ]
}